IRIDIUM 112             
1 41925U 17003J   25293.19960883  .00000361  00000+0  12185-3 0  9996
2 41925  86.4030 188.5581 0002232  87.0641 273.0810 14.34219823458875
IRIDIUM 111             
1 41926U 17003K   25293.25669028  .00000542  00000+0  18637-3 0  9990
2 41926  86.4034 188.5995 0002187  80.9929 279.1514 14.34220789458869
IRIDIUM 113             
1 42803U 17039A   25293.65526747 -.00000004  00000+0 -85130-5 0  9997
2 42803  86.3959  62.2793 0002128  94.5687 265.5752 14.34218221436856
IRIDIUM 123             
1 42804U 17039B   25293.48743974  .00000084  00000+0  22817-4 0  9990
2 42804  86.3919  93.8477 0002093  81.4598 278.6835 14.34218321435597
IRIDIUM 120             
1 42805U 17039C   25293.64892354  .00000530  00000+0  18213-3 0  9996
2 42805  86.3949  62.0948 0001731  92.0819 268.0575 14.34219926436849
IRIDIUM 115             
1 42806U 17039D   25293.44186721  .00000864  00000+0  25091-3 0  9991
2 42806  86.4487  62.2773 0001969  75.8482 284.2938 14.43282482439689
IRIDIUM 118             
1 42807U 17039E   25293.58892248  .00000035  00000+0  55586-5 0  9999
2 42807  86.3918  93.8044 0002285  92.5493 267.5965 14.34217829435604
IRIDIUM 117             
1 42808U 17039F   25293.60794965  .00000068  00000+0  17232-4 0  9991
2 42808  86.3917  93.7563 0002168  84.8145 275.3298 14.34218138435630
